[{"OBJECT_NAME":"STARLINK-32081","OBJECT_ID":"2024-136V","EPOCH":"2026-03-09T08:04:53.037408","MEAN_MOTION":15.30190436,"ECCENTRICITY":0.00013053,"INCLINATION":53.1602,"RA_OF_ASC_NODE":77.0795,"ARG_OF_PERICENTER":80.28,"MEAN_ANOMALY":279.8348,"EPHEMERIS_TYPE":0,"CLASSIFICATION_TYPE":"U","NORAD_CAT_ID":60348,"ELEMENT_SET_NO":999,"REV_AT_EPOCH":8961,"BSTAR":9.115408e-6,"MEAN_MOTION_DOT":-8.9e-7,"MEAN_MOTION_DDOT":0},{"OBJECT_NAME":"NUSAT-49 (KLARA DAN VON NEUMANN)","OBJECT_ID":"2024-149AJ","EPOCH":"2026-03-09T19:09:16.004160","MEAN_MOTION":15.30828857,"ECCENTRICITY":0.00011321,"INCLINATION":97.3807,"RA_OF_ASC_NODE":150.738,"ARG_OF_PERICENTER":286.7761,"MEAN_ANOMALY":73.3356,"EPHEMERIS_TYPE":0,"CLASSIFICATION_TYPE":"U","NORAD_CAT_ID":60500,"ELEMENT_SET_NO":999,"REV_AT_EPOCH":8693,"BSTAR":0.00043568345,"MEAN_MOTION_DOT":0.00012912,"MEAN_MOTION_DDOT":0}]
